{"type":"FeatureCollection","name":"ayutthaya-amphoe","attribution":"ขอบเขตอำเภอจาก OpenGISData-Thailand (Theppong) กรองจังหวัดพระนครศรีอยุธยา ใช้แสดงรูปร่างพื้นที่ ไม่ใช่ที่ตั้งสถานศึกษาและไม่ใช่สถิติการศึกษา","source":"https://github.com/Theppong/OpenGISData-Thailand","features":[{"type":"Feature","properties":{"name":"พระนครศรีอยุธยา","amp_code":"1401"},"geometry":{"type":"MultiPolygon","coordinates":[[[[100.5486121037197,14.30078143439378],[100.53668573405912,14.294177887529044],[100.5331404288845,14.284101983952274],[100.52661916268222,14.280208539309845],[100.5257356469473,14.28689853242578],[100.51426074147572,14.301772072547351],[100.51662701010821,14.310962090895227],[100.507468499436,14.319832280255886],[100.50952703432648,14.326327302384946],[100.51558764906672,14.335479090925125],[100.51904622702708,14.350784810935744],[100.51501484243536,14.354226210554998],[100.51487067990999,14.379558841446583],[100.5133495578848,14.382426016545924],[100.50320898315582,14.404050917283596],[100.5036874497881,14.404526938381082],[100.50523036900368,14.405910246529595],[100.51864722541156,14.402663017433257],[100.52711120486646,14.40642627331189],[100.53045341372173,14.401949604600158],[100.54414034302893,14.403020925039842],[100.55646483857264,14.405198631073738],[100.558362569148,14.405050539618815],[100.57486657839176,14.40514221456258],[100.57545505965467,14.395092885910246],[100.58138473089926,14.397910653695527],[100.61433056137797,14.392870378120547],[100.61406845665742,14.359418105973546],[100.60895312236511,14.356037429129902],[100.60191484990673,14.3470475881712],[100.62721979003045,14.349609453574738],[100.626999855264,14.343864702423772],[100.61759360298385,14.335476823972222],[100.62984768701516,14.323650764216508],[100.59060885615959,14.321487666867098],[100.58569145176607,14.321285539948379],[100.58707126716217,14.303845124564567],[100.5680832821394,14.305622942624925],[100.56563543792743,14.302757949607313],[100.56080433798368,14.299308622593923],[100.5486121037197,14.30078143439378]]]]}},{"type":"Feature","properties":{"name":"ท่าเรือ","amp_code":"1402"},"geometry":{"type":"MultiPolygon","coordinates":[[[[100.76650416891957,14.525033842586554],[100.74894649931122,14.517187236480678],[100.74992655879737,14.509309016562915],[100.76299926247293,14.493939411830107],[100.76272779611367,14.487466927427437],[100.75399987347531,14.491565407029405],[100.74799105168653,14.485562662803428],[100.73191223646339,14.501714012015446],[100.7211385819616,14.504526114159942],[100.70343417839592,14.496137927659207],[100.68766238318238,14.49550725280219],[100.67195452544091,14.495983372013406],[100.66675703077581,14.50503825997932],[100.65611591056938,14.51999855330139],[100.64906883875203,14.531122433493563],[100.6093007361358,14.553003102831848],[100.60427876624883,14.556050785928067],[100.61939001660096,14.560341643901797],[100.63296983778324,14.551049568201236],[100.64439658937079,14.548761962628015],[100.6579533775786,14.549532898259105],[100.67018642338103,14.556583891389291],[100.67509908702459,14.55709671734966],[100.67705647391308,14.56231807617181],[100.6559695342771,14.606075703482551],[100.67765398637994,14.594598198115875],[100.68267435148859,14.584972578522388],[100.70198378431836,14.575256830729584],[100.71261754489603,14.575484189772357],[100.72268733747768,14.57650943322924],[100.72419512490139,14.568500814334438],[100.7315621052616,14.56888471670093],[100.7566462903397,14.569505369063693],[100.76270814476881,14.568554832661784],[100.78066849654893,14.567537563710895],[100.77425000707404,14.550700358076371],[100.77758456133321,14.530982832252842],[100.76650416891957,14.525033842586554]]]]}},{"type":"Feature","properties":{"name":"นครหลวง","amp_code":"1403"},"geometry":{"type":"MultiPolygon","coordinates":[[[[100.63178070722319,14.40211334557585],[100.61433056137797,14.392870378120547],[100.58138473089926,14.397910653695527],[100.57545505965467,14.395092885910246],[100.57486657839176,14.40514221456258],[100.57696699641384,14.412066540154495],[100.57808925661996,14.421228800329008],[100.58262587428149,14.430069878705085],[100.5978684367274,14.434783567579117],[100.59707012564955,14.440781571802217],[100.5896478828419,14.446084317451977],[100.57577849804176,14.456021723626536],[100.57572091195695,14.46537035745214],[100.56447199247219,14.468842825373871],[100.57207697322755,14.473660598635961],[100.58128066335401,14.481989027603937],[100.58562900759092,14.487771573549908],[100.58267002062591,14.494029299490286],[100.59484243694506,14.509138559838878],[100.60056650253794,14.517570966126266],[100.59397165257312,14.536283877871044],[100.60360747801612,14.545975197973377],[100.6032457303358,14.555957312439471],[100.60427876624883,14.556050785928067],[100.6093007361358,14.553003102831848],[100.64906883875203,14.531122433493563],[100.65611591056938,14.51999855330139],[100.66675703077581,14.50503825997932],[100.67195452544091,14.495983372013406],[100.68766238318238,14.49550725280219],[100.68897506429039,14.482721186568579],[100.68110533524282,14.475639640417832],[100.68471227266399,14.452612641399348],[100.67401701650105,14.450676747657623],[100.66667729305843,14.43818020437399],[100.65213427172328,14.437078202132529],[100.64862425383255,14.43106624606979],[100.65920631279056,14.416053873835457],[100.63178070722319,14.40211334557585]]]]}},{"type":"Feature","properties":{"name":"บางไทร","amp_code":"1404"},"geometry":{"type":"MultiPolygon","coordinates":[[[[100.52807913445663,14.120770893188176],[100.51719111779,14.129439396909314],[100.49502326708496,14.115260118933815],[100.48153692617883,14.112069031008096],[100.46623105267719,14.111971777650785],[100.45622220277883,14.116864063675791],[100.45529266120454,14.129282982548682],[100.46138963781614,14.125448360133996],[100.46153363413708,14.149361019384667],[100.44811952944174,14.152828646216237],[100.44457386197361,14.165466703054454],[100.425377091368,14.161718291506716],[100.42459156198763,14.173814327944422],[100.41379709923882,14.179691719063628],[100.4171691349624,14.195754109592112],[100.41774314629932,14.224233946388031],[100.42422759750842,14.235441527023406],[100.42032604852045,14.243947104779064],[100.42917552819476,14.250245567945147],[100.43239326458766,14.253294001433595],[100.43791867861927,14.259615407255838],[100.43602293257702,14.275459204023882],[100.42995620402682,14.297504205311974],[100.43216427800515,14.307686135673448],[100.44876533117305,14.323360159319556],[100.45152023308056,14.323960265616773],[100.47617619625044,14.320202802214341],[100.48240744647576,14.318060142211904],[100.500147339217,14.330471266391216],[100.50952703432648,14.326327302384946],[100.507468499436,14.319832280255886],[100.51662701010821,14.310962090895227],[100.51426074147572,14.301772072547351],[100.5257356469473,14.28689853242578],[100.52661916268222,14.280208539309845],[100.52299738580287,14.277005934758265],[100.52654108842789,14.26569467843386],[100.529365028674,14.251965557048266],[100.52799977109981,14.240939938283296],[100.53036483808123,14.227132398121727],[100.53050897130537,14.221871900503912],[100.53052214373372,14.221075252815632],[100.53016527179443,14.198136496357263],[100.52953109554527,14.196636462995817],[100.53436455442832,14.169006844332179],[100.53479080809745,14.16251945256861],[100.5439958038497,14.154609238885007],[100.55542375411287,14.149534814673288],[100.55544901694365,14.149514757251511],[100.5558154358258,14.149122903235183],[100.55566032895402,14.148998013846935],[100.55582041511829,14.14912691228149],[100.57904349844931,14.13907777102899],[100.58085573015751,14.127375190116048],[100.55243730816215,14.117913433913525],[100.5538508521952,14.111160087180698],[100.55000871098078,14.110682057574625],[100.54109212732084,14.116879070005634],[100.52807913445663,14.120770893188176]]]]}},{"type":"Feature","properties":{"name":"บางบาล","amp_code":"1405"},"geometry":{"type":"MultiPolygon","coordinates":[[[[100.51558764906672,14.335479090925125],[100.50952703432648,14.326327302384946],[100.500147339217,14.330471266391216],[100.48240744647576,14.318060142211904],[100.47617619625044,14.320202802214341],[100.45152023308056,14.323960265616773],[100.44876533117305,14.323360159319556],[100.43216427800515,14.307686135673448],[100.42852657512096,14.32668267027578],[100.4203652403458,14.33522408143131],[100.43682764968882,14.364089035286561],[100.42018852060282,14.369519176886284],[100.41566654230454,14.375621804542028],[100.4156614273178,14.385763943803035],[100.41677109901325,14.395472289168223],[100.41724608999334,14.397447917584655],[100.41676588425796,14.410259472237348],[100.4125578325854,14.42436451000119],[100.40995990597521,14.429924526661715],[100.41754877879235,14.44413509652097],[100.43432043743832,14.448134032978004],[100.4493482237727,14.443284093261408],[100.46011979925643,14.438899173670299],[100.46765801441933,14.442127906898483],[100.49669575299292,14.459466238557868],[100.50602320220463,14.448852671141106],[100.51240422376152,14.438561659179724],[100.50807852763006,14.431327706621234],[100.50523036900368,14.405910246529595],[100.5036874497881,14.404526938381082],[100.50320898315582,14.404050917283596],[100.5133495578848,14.382426016545924],[100.51487067990999,14.379558841446583],[100.51501484243536,14.354226210554998],[100.51904622702708,14.350784810935744],[100.51558764906672,14.335479090925125]]]]}},{"type":"Feature","properties":{"name":"บางปะอิน","amp_code":"1406"},"geometry":{"type":"MultiPolygon","coordinates":[[[[100.61741767845294,14.190543254093521],[100.61974487187152,14.175793320631527],[100.61995648237054,14.142593826031701],[100.61986381175906,14.129253284918146],[100.60711555851469,14.135572192383723],[100.58085573015751,14.127375190116048],[100.57904349844931,14.13907777102899],[100.55582041511829,14.14912691228149],[100.5558154358258,14.149122903235183],[100.55544901694365,14.149514757251511],[100.55550339283035,14.149471586707078],[100.55542375411287,14.149534814673288],[100.5439958038497,14.154609238885007],[100.53479080809745,14.16251945256861],[100.53436455442832,14.169006844332179],[100.52953109554527,14.196636462995817],[100.53016527179443,14.198136496357263],[100.53052214373372,14.221075252815632],[100.53050897130537,14.221871900503912],[100.53036483808123,14.227132398121727],[100.52799977109981,14.240939938283296],[100.529365028674,14.251965557048266],[100.52654108842789,14.26569467843386],[100.52299738580287,14.277005934758265],[100.52661916268222,14.280208539309845],[100.5331404288845,14.284101983952274],[100.53668573405912,14.294177887529044],[100.5486121037197,14.30078143439378],[100.56080433798368,14.299308622593923],[100.56563543792743,14.302757949607313],[100.5680832821394,14.305622942624925],[100.58707126716217,14.303845124564567],[100.58569145176607,14.321285539948379],[100.59060885615959,14.321487666867098],[100.62984768701516,14.323650764216508],[100.65984722784093,14.322551564653619],[100.66626856178046,14.315919853173256],[100.68302567251345,14.299473953073884],[100.67714834350697,14.278547526641042],[100.67259335453956,14.2765300979903],[100.67689608089714,14.268567514611831],[100.66815135852488,14.264040744659768],[100.6526822939287,14.245331429574536],[100.64570822734844,14.235707899479246],[100.63868165155488,14.231844032493942],[100.63598127730316,14.229373608888366],[100.64757660359314,14.222433664102253],[100.64405288557738,14.211312231587028],[100.62820304777644,14.206636941824856],[100.61468553156834,14.192711770852489],[100.61741767845294,14.190543254093521]],[[100.56450493842515,14.286723719474121],[100.56517593740007,14.28723540994443],[100.56525851324369,14.287298381644828],[100.56450493842515,14.286723719474121]]]]}},{"type":"Feature","properties":{"name":"บางปะหัน","amp_code":"1407"},"geometry":{"type":"MultiPolygon","coordinates":[[[[100.57486657839176,14.40514221456258],[100.558362569148,14.405050539618815],[100.55646483857264,14.405198631073738],[100.54414034302893,14.403020925039842],[100.53045341372173,14.401949604600158],[100.52711120486646,14.40642627331189],[100.51864722541156,14.402663017433257],[100.50523036900368,14.405910246529595],[100.50807852763006,14.431327706621234],[100.51240422376152,14.438561659179724],[100.50602320220463,14.448852671141106],[100.49669575299292,14.459466238557868],[100.49385103561548,14.469113073678644],[100.49276223024209,14.489926559146626],[100.49338781704415,14.49658655466217],[100.5000647636355,14.50210069192679],[100.50037687182123,14.502294164564683],[100.49645775893967,14.50750187430699],[100.50385670933318,14.512014718018463],[100.50944574891095,14.532550189952696],[100.51578777781432,14.531673165344156],[100.51355226355159,14.527176092599474],[100.51904805662322,14.520443897276413],[100.52510081424863,14.52201013909875],[100.54234884853747,14.524588630557592],[100.54974636984262,14.525948767197194],[100.56928241332515,14.544770603921384],[100.60260317321972,14.556527749800944],[100.6032457303358,14.555957312439471],[100.60360747801612,14.545975197973377],[100.59397165257312,14.536283877871044],[100.60056650253794,14.517570966126266],[100.59484243694506,14.509138559838878],[100.58267002062591,14.494029299490286],[100.58562900759092,14.487771573549908],[100.58128066335401,14.481989027603937],[100.57207697322755,14.473660598635961],[100.56447199247219,14.468842825373871],[100.57572091195695,14.46537035745214],[100.57577849804176,14.456021723626536],[100.5896478828419,14.446084317451977],[100.59707012564955,14.440781571802217],[100.5978684367274,14.434783567579117],[100.58262587428149,14.430069878705085],[100.57808925661996,14.421228800329008],[100.57696699641384,14.412066540154495],[100.57486657839176,14.40514221456258]]]]}},{"type":"Feature","properties":{"name":"ผักไห่","amp_code":"1408"},"geometry":{"type":"MultiPolygon","coordinates":[[[[100.40045913884657,14.402890224686036],[100.3751937780352,14.40224765919916],[100.37169213018404,14.402611509323455],[100.37121395726676,14.40261541469066],[100.34012565738398,14.404636701515146],[100.29301612103784,14.405091292041876],[100.27855891772872,14.405704440909732],[100.27414739089663,14.426669980771305],[100.26047509622019,14.443208238193574],[100.24614029318766,14.452335569788662],[100.24382930646074,14.460370616276348],[100.25267930235425,14.481123090129511],[100.25925333810916,14.49060682658824],[100.27702191281497,14.48632217952385],[100.2869116387745,14.497592670546391],[100.29890460587723,14.49582721328424],[100.31338372824641,14.491576081387898],[100.31925736700751,14.488060691426481],[100.33994610374508,14.493048706571978],[100.34867498588075,14.498619046539844],[100.37397944699745,14.500889287615182],[100.38291705265573,14.508710087390044],[100.39233744475386,14.509984304268334],[100.39634137192085,14.505861201808388],[100.39814928100448,14.508785948716447],[100.40584855901255,14.508130942605137],[100.4272447449646,14.49360014300567],[100.41764593314288,14.484954611196674],[100.41824357642788,14.478631454715277],[100.41694017117256,14.463096333317681],[100.41754877879235,14.44413509652097],[100.40995990597521,14.429924526661715],[100.4125578325854,14.42436451000119],[100.41676588425796,14.410259472237348],[100.41724608999334,14.397447917584655],[100.41230306594372,14.404064898923352],[100.40045913884657,14.402890224686036]]]]}},{"type":"Feature","properties":{"name":"ภาชี","amp_code":"1409"},"geometry":{"type":"MultiPolygon","coordinates":[[[[100.77042802243781,14.407239555125875],[100.77903720571042,14.411994320601206],[100.78202835496917,14.40587233499187],[100.78108971985662,14.398596014371211],[100.79708811154612,14.390651549013185],[100.78801205521742,14.380604730538185],[100.7868694826265,14.370120393745294],[100.77420798321712,14.361670247041786],[100.75154413858488,14.38526546116757],[100.75159730358514,14.397510443520087],[100.7459563352721,14.402895914967589],[100.74202048090255,14.406158325713385],[100.73385474491293,14.401978413515788],[100.7261162773565,14.400796849024136],[100.6948923806222,14.406289894212188],[100.67500956094374,14.410768975182219],[100.66448077574152,14.406929805985069],[100.65881529485128,14.412869462742078],[100.65920631279056,14.416053873835457],[100.64862425383255,14.43106624606979],[100.65213427172328,14.437078202132529],[100.66667729305843,14.43818020437399],[100.67401701650105,14.450676747657623],[100.68471227266399,14.452612641399348],[100.68110533524282,14.475639640417832],[100.68897506429039,14.482721186568579],[100.68766238318238,14.49550725280219],[100.70343417839592,14.496137927659207],[100.7211385819616,14.504526114159942],[100.73191223646339,14.501714012015446],[100.74799105168653,14.485562662803428],[100.75399987347531,14.491565407029405],[100.76272779611367,14.487466927427437],[100.76299926247293,14.493939411830107],[100.76787214194228,14.498312142906578],[100.77236590489707,14.492751627560894],[100.76532743757508,14.484097747386466],[100.77297741464834,14.483322792524639],[100.7721707797268,14.479353345540208],[100.7661204248148,14.478735713507692],[100.77035539309834,14.466085864484917],[100.76616456994822,14.454178285888974],[100.76022029462942,14.451116000240978],[100.7713680713801,14.43577421418596],[100.76738410955927,14.431044519129689],[100.76821021521819,14.420707988743668],[100.75970116785027,14.413520883458887],[100.77042802243781,14.407239555125875]]]]}},{"type":"Feature","properties":{"name":"ลาดบัวหลวง","amp_code":"1410"},"geometry":{"type":"MultiPolygon","coordinates":[[[[100.46153363413708,14.149361019384667],[100.46138963781614,14.125448360133996],[100.45529266120454,14.129282982548682],[100.45622220277883,14.116864063675791],[100.4300825805645,14.114264898708198],[100.42194670781086,14.114226090449725],[100.39827483704721,14.114982835958843],[100.39340605794003,14.121409959137106],[100.39407971299461,14.131842238148755],[100.38311409258972,14.132994836482448],[100.38283887052249,14.11511607619146],[100.34422506562898,14.115601480771785],[100.33385104727928,14.128527305367786],[100.30851690585513,14.13578648409537],[100.29714373152116,14.139975956528161],[100.27987792166482,14.12535151014754],[100.28192667711318,14.141978590886312],[100.28367015276356,14.17005175648932],[100.23424302453094,14.175138569636207],[100.23562030811034,14.203610964787153],[100.24409362410994,14.210144796141972],[100.2601586421901,14.201699898030446],[100.26138672100136,14.215136949520762],[100.27434529478961,14.219302313181112],[100.28988716012786,14.217383886213234],[100.30499787468499,14.217501905754355],[100.32004830608335,14.224210405752862],[100.34772416252015,14.224927154962106],[100.35188221450238,14.22085278362138],[100.35124329053302,14.212057428792363],[100.37068453015415,14.214154737366387],[100.38635309718603,14.202315292257964],[100.39959688900898,14.21456808276359],[100.41238054294766,14.21675279188962],[100.41774314629932,14.224233946388031],[100.4171691349624,14.195754109592112],[100.41379709923882,14.179691719063628],[100.42459156198763,14.173814327944422],[100.425377091368,14.161718291506716],[100.44457386197361,14.165466703054454],[100.44811952944174,14.152828646216237],[100.46153363413708,14.149361019384667]]]]}},{"type":"Feature","properties":{"name":"วังน้อย","amp_code":"1411"},"geometry":{"type":"MultiPolygon","coordinates":[[[[100.61995648237054,14.142593826031701],[100.61974487187152,14.175793320631527],[100.61741767845294,14.190543254093521],[100.61468553156834,14.192711770852489],[100.62820304777644,14.206636941824856],[100.64405288557738,14.211312231587028],[100.64757660359314,14.222433664102253],[100.63598127730316,14.229373608888366],[100.63868165155488,14.231844032493942],[100.64570822734844,14.235707899479246],[100.6526822939287,14.245331429574536],[100.66815135852488,14.264040744659768],[100.67689608089714,14.268567514611831],[100.67259335453956,14.2765300979903],[100.67714834350697,14.278547526641042],[100.68302567251345,14.299473953073884],[100.68284171500204,14.308925989877217],[100.69164409671026,14.30950183972405],[100.71272152127266,14.307013384722437],[100.72190832786261,14.301869812145856],[100.72940279743875,14.303489748704669],[100.7317399988386,14.299979490364825],[100.78452992831605,14.322806551302534],[100.7885260719015,14.322874776072785],[100.815460661006,14.326866186420286],[100.82354173215549,14.329525745369889],[100.82358564334784,14.285786056039441],[100.82360179953525,14.276283841792033],[100.82306347105944,14.243899907913509],[100.80047777494424,14.232988619078341],[100.7766513295266,14.221625488252371],[100.75502707897844,14.210966613346148],[100.7435987837271,14.20512002183977],[100.7316984813028,14.199340630769502],[100.72104049306274,14.194298443119004],[100.6988833012729,14.183815114437877],[100.67446087672165,14.171379472356092],[100.6692280943883,14.168678414602962],[100.65273175481401,14.16005121507868],[100.63114954405569,14.148665528446159],[100.61995648237054,14.142593826031701]]]]}},{"type":"Feature","properties":{"name":"เสนา","amp_code":"1412"},"geometry":{"type":"MultiPolygon","coordinates":[[[[100.43239326458766,14.253294001433595],[100.42917552819476,14.250245567945147],[100.42032604852045,14.243947104779064],[100.42422759750842,14.235441527023406],[100.41774314629932,14.224233946388031],[100.41238054294766,14.21675279188962],[100.39959688900898,14.21456808276359],[100.38635309718603,14.202315292257964],[100.37068453015415,14.214154737366387],[100.35124329053302,14.212057428792363],[100.35188221450238,14.22085278362138],[100.34772416252015,14.224927154962106],[100.32004830608335,14.224210405752862],[100.30499787468499,14.217501905754355],[100.28988716012786,14.217383886213234],[100.27434529478961,14.219302313181112],[100.28041722868694,14.234900933800363],[100.29574848765964,14.244227570138898],[100.30537507371282,14.25634830510209],[100.32223574312394,14.275999285461664],[100.34359262584447,14.305448384324817],[100.35776900838401,14.325204028610818],[100.33646290730783,14.33760407375081],[100.33345034441712,14.344973619190315],[100.34113758585458,14.360794742266565],[100.34743141265544,14.379399714090436],[100.36280851695669,14.384050616662835],[100.37121395726676,14.40261541469066],[100.37169213018404,14.402611509323455],[100.3751937780352,14.40224765919916],[100.40045913884657,14.402890224686036],[100.41230306594372,14.404064898923352],[100.41724608999334,14.397447917584655],[100.41677109901325,14.395472289168223],[100.4156614273178,14.385763943803035],[100.41566654230454,14.375621804542028],[100.42018852060282,14.369519176886284],[100.43682764968882,14.364089035286561],[100.4203652403458,14.33522408143131],[100.42852657512096,14.32668267027578],[100.43216427800515,14.307686135673448],[100.42995620402682,14.297504205311974],[100.43602293257702,14.275459204023882],[100.43791867861927,14.259615407255838],[100.43239326458766,14.253294001433595]]]]}},{"type":"Feature","properties":{"name":"บางซ้าย","amp_code":"1413"},"geometry":{"type":"MultiPolygon","coordinates":[[[[100.30537507371282,14.25634830510209],[100.29574848765964,14.244227570138898],[100.28041722868694,14.234900933800363],[100.27434529478961,14.219302313181112],[100.26138672100136,14.215136949520762],[100.2601586421901,14.201699898030446],[100.24409362410994,14.210144796141972],[100.23562030811034,14.203610964787153],[100.226543123909,14.196696814825223],[100.23010949816481,14.208722110732035],[100.22566338474292,14.232614019696639],[100.23701830637641,14.240558147230622],[100.24140306990373,14.261829038404098],[100.25056895885724,14.26838933356016],[100.25118930415076,14.29102768395724],[100.25696722222527,14.299555754558124],[100.26128214257241,14.319631927273292],[100.27896201853262,14.338757143458857],[100.27997105933642,14.350828851978706],[100.28003513911037,14.352621771636434],[100.27229343764519,14.362190262910307],[100.26838967748252,14.376601426484365],[100.2766397625778,14.383385489471777],[100.27561380918289,14.390830749583142],[100.28112121643352,14.39862939694655],[100.27855891772872,14.405704440909732],[100.29301612103784,14.405091292041876],[100.34012565738398,14.404636701515146],[100.37121395726676,14.40261541469066],[100.36280851695669,14.384050616662835],[100.34743141265544,14.379399714090436],[100.34113758585458,14.360794742266565],[100.33345034441712,14.344973619190315],[100.33646290730783,14.33760407375081],[100.35776900838401,14.325204028610818],[100.34359262584447,14.305448384324817],[100.32223574312394,14.275999285461664],[100.30537507371282,14.25634830510209]]]]}},{"type":"Feature","properties":{"name":"อุทัย","amp_code":"1414"},"geometry":{"type":"MultiPolygon","coordinates":[[[[100.69164409671026,14.30950183972405],[100.68284171500204,14.308925989877217],[100.68302567251345,14.299473953073884],[100.66626856178046,14.315919853173256],[100.65984722784093,14.322551564653619],[100.62984768701516,14.323650764216508],[100.61759360298385,14.335476823972222],[100.626999855264,14.343864702423772],[100.62721979003045,14.349609453574738],[100.60191484990673,14.3470475881712],[100.60895312236511,14.356037429129902],[100.61406845665742,14.359418105973546],[100.61433056137797,14.392870378120547],[100.63178070722319,14.40211334557585],[100.65920631279056,14.416053873835457],[100.65881529485128,14.412869462742078],[100.66448077574152,14.406929805985069],[100.67500956094374,14.410768975182219],[100.6948923806222,14.406289894212188],[100.7261162773565,14.400796849024136],[100.73385474491293,14.401978413515788],[100.74202048090255,14.406158325713385],[100.7459563352721,14.402895914967589],[100.75159730358514,14.397510443520087],[100.75154413858488,14.38526546116757],[100.77420798321712,14.361670247041786],[100.7868694826265,14.370120393745294],[100.78795062697172,14.364637541039299],[100.79301597246821,14.364413973166814],[100.78470866411064,14.349790139365103],[100.78215126785923,14.339830392723885],[100.77280722298093,14.329737220492007],[100.78452992831605,14.322806551302534],[100.7317399988386,14.299979490364825],[100.72940279743875,14.303489748704669],[100.72190832786261,14.301869812145856],[100.71272152127266,14.307013384722437],[100.69164409671026,14.30950183972405]]]]}},{"type":"Feature","properties":{"name":"มหาราช","amp_code":"1415"},"geometry":{"type":"MultiPolygon","coordinates":[[[[100.50944574891095,14.532550189952696],[100.50385670933318,14.512014718018463],[100.49645775893967,14.50750187430699],[100.49063512660665,14.514854823600432],[100.4988212156023,14.51963284671571],[100.49134424963891,14.532148593451753],[100.49197171555568,14.548387552813546],[100.47904265057817,14.56779827106907],[100.48920668514194,14.576874368608635],[100.49274991801607,14.585348327324247],[100.49297768078992,14.593579038629748],[100.49149280039481,14.609357994780654],[100.4999477594507,14.617987847792364],[100.49907175504646,14.625007624373007],[100.50332506514795,14.630035185339242],[100.52159079192072,14.623558954885382],[100.52838301890363,14.621061621093776],[100.56400240293748,14.622664681708315],[100.58218169307841,14.624281888241919],[100.57671197500906,14.604603605354765],[100.57891293635389,14.599809581981324],[100.57528546401706,14.59685927374273],[100.60316727328627,14.578487419158742],[100.60204242544086,14.557183490983938],[100.60260317321972,14.556527749800944],[100.56928241332515,14.544770603921384],[100.54974636984262,14.525948767197194],[100.54234884853747,14.524588630557592],[100.52510081424863,14.52201013909875],[100.51904805662322,14.520443897276413],[100.51355226355159,14.527176092599474],[100.51578777781432,14.531673165344156],[100.50944574891095,14.532550189952696]]]]}},{"type":"Feature","properties":{"name":"บ้านแพรก","amp_code":"1416"},"geometry":{"type":"MultiPolygon","coordinates":[[[[100.58431945102747,14.629035183799889],[100.58406944562316,14.628152238801501],[100.58218169307841,14.624281888241919],[100.56400240293748,14.622664681708315],[100.52838301890363,14.621061621093776],[100.52159079192072,14.623558954885382],[100.50332506514795,14.630035185339242],[100.49861477432287,14.634784938007881],[100.50001944983016,14.64946398456517],[100.50829961909672,14.652185362610261],[100.50484166607288,14.655553242801403],[100.50281747856492,14.66794157843679],[100.50919604391359,14.673016187512722],[100.50704015100422,14.66198366269542],[100.5130824176742,14.65646466475362],[100.52419156717315,14.665278316805038],[100.53362721553094,14.665230938819937],[100.54165331431194,14.669410193036297],[100.54923063696543,14.671292934964328],[100.55258533668562,14.660511202751612],[100.56809644667922,14.661667984820154],[100.56937714996076,14.661513596910865],[100.58139333586489,14.664037521913846],[100.60239785634087,14.653838423311983],[100.59305716094396,14.641861080490346],[100.58431945102747,14.629035183799889]]]]}}]}